start=new Date('2022-07-22T00:00:00.000Z').valueOf();
sats=[{"REV_AT_EPOCH":"130","ARG_OF_PERICENTER":"39.9979","FILE":"3519265","TLE_LINE2":"2 52564  53.2193 330.2429 0001899  39.9979  26.6948 15.08808305  1300","INCLINATION":"53.2193","RCS_SIZE":"LARGE","SEMIMAJOR_AXIS":"6917.977","RA_OF_ASC_NODE":"330.2429","REF_FRAME":"TEME","OBJECT_NAME":"STARLINK-3959","MEAN_MOTION_DDOT":"0.0000000000000","OBJECT_TYPE":"PAYLOAD","LAUNCH_DATE":"2022-05-13","MEAN_MOTION":"15.08808305","MEAN_MOTION_DOT":"0.00003954","CENTER_NAME":"EARTH","DECAY_DATE":null,"MEAN_ELEMENT_THEORY":"SGP4","TLE_LINE1":"1 52564U 22051AH  22202.91667824  .00003954  00000-0  26659-3 0  9995","ECCENTRICITY":"0.00018990","ELEMENT_SET_NO":"999","NORAD_CAT_ID":"52564","TIME_SYSTEM":"UTC","GP_ID":"208607237","COUNTRY_CODE":"US","OBJECT_ID":"2022-051AH","CLASSIFICATION_TYPE":"U","EPHEMERIS_TYPE":"0","BSTAR":"0.00026659000000","EPOCH":"2022-07-21T22:00:00.999936","SITE":"AFWTR","PERIAPSIS":"538.529","MEAN_ANOMALY":"26.6948","PERIOD":"95.440","APOAPSIS":"541.156"},{"ARG_OF_PERICENTER":"48.7693","REV_AT_EPOCH":"130","INCLINATION":"53.2172","RCS_SIZE":"LARGE","FILE":"3519265","TLE_LINE2":"2 52565  53.2172 315.5644 0001689  48.7693 134.9024 15.22403435  1300","SEMIMAJOR_AXIS":"6876.730","REF_FRAME":"TEME","RA_OF_ASC_NODE":"315.5644","MEAN_MOTION":"15.22403435","LAUNCH_DATE":"2022-05-13","MEAN_MOTION_DOT":"-0.01064025","CENTER_NAME":"EARTH","DECAY_DATE":null,"OBJECT_NAME":"STARLINK-3911","MEAN_MOTION_DDOT":"0.0000000000000","OBJECT_TYPE":"PAYLOAD","TLE_LINE1":"1 52565U 22051AJ  22202.91667824 -.01064025  00000-0 -49652-1 0  9991","MEAN_ELEMENT_THEORY":"SGP4","ELEMENT_SET_NO":"999","ECCENTRICITY":"0.00016890","NORAD_CAT_ID":"52565","TIME_SYSTEM":"UTC","GP_ID":"208607390","COUNTRY_CODE":"US","CLASSIFICATION_TYPE":"U","OBJECT_ID":"2022-051AJ","EPHEMERIS_TYPE":"0","PERIAPSIS":"497.434","MEAN_ANOMALY":"134.9024","PERIOD":"94.587","APOAPSIS":"499.757","BSTAR":"-0.04965200000000","EPOCH":"2022-07-21T22:00:00.999936","SITE":"AFWTR"},{"ARG_OF_PERICENTER":"38.8375","REV_AT_EPOCH":"130","RCS_SIZE":"LARGE","INCLINATION":"53.2176","TLE_LINE2":"2 52566  53.2176 330.2239 0002087  38.8375 147.8796 15.08821672  1309","FILE":"3519265","SEMIMAJOR_AXIS":"6917.936","RA_OF_ASC_NODE":"330.2239","REF_FRAME":"TEME","CENTER_NAME":"EARTH","DECAY_DATE":null,"LAUNCH_DATE":"2022-05-13","MEAN_MOTION":"15.08821672","MEAN_MOTION_DOT":"0.00003899","OBJECT_TYPE":"PAYLOAD","OBJECT_NAME":"STARLINK-3938","MEAN_MOTION_DDOT":"0.0000000000000","TLE_LINE1":"1 52566U 22051AK  22202.91667824  .00003899  00000-0  26306-3 0  9994","MEAN_ELEMENT_THEORY":"SGP4","GP_ID":"208607816","ELEMENT_SET_NO":"999","NORAD_CAT_ID":"52566","ECCENTRICITY":"0.00020870","TIME_SYSTEM":"UTC","EPHEMERIS_TYPE":"0","COUNTRY_CODE":"US","OBJECT_ID":"2022-051AK","CLASSIFICATION_TYPE":"U","PERIOD":"95.439","APOAPSIS":"541.245","PERIAPSIS":"538.358","MEAN_ANOMALY":"147.8796","SITE":"AFWTR","BSTAR":"0.00026306000000","EPOCH":"2022-07-21T22:00:00.999936"},{"INCLINATION":"53.2172","RCS_SIZE":"LARGE","FILE":"3519265","TLE_LINE2":"2 52567  53.2172 315.5757 0001790  43.4954 167.2418 15.22994440  1309","ARG_OF_PERICENTER":"43.4954","REV_AT_EPOCH":"130","MEAN_MOTION":"15.22994440","LAUNCH_DATE":"2022-05-13","MEAN_MOTION_DOT":"-0.01065090","CENTER_NAME":"EARTH","DECAY_DATE":null,"OBJECT_NAME":"STARLINK-3929","MEAN_MOTION_DDOT":"0.0000000000000","OBJECT_TYPE":"PAYLOAD","SEMIMAJOR_AXIS":"6874.951","RA_OF_ASC_NODE":"315.5757","REF_FRAME":"TEME","ELEMENT_SET_NO":"999","ECCENTRICITY":"0.00017900","NORAD_CAT_ID":"52567","TIME_SYSTEM":"UTC","GP_ID":"208607499","TLE_LINE1":"1 52567U 22051AL  22202.91667824 -.01065090  00000-0 -48838-1 0  9991","MEAN_ELEMENT_THEORY":"SGP4","PERIAPSIS":"495.586","MEAN_ANOMALY":"167.2418","PERIOD":"94.551","APOAPSIS":"498.047","BSTAR":"-0.04883800000000","EPOCH":"2022-07-21T22:00:00.999936","SITE":"AFWTR","COUNTRY_CODE":"US","OBJECT_ID":"2022-051AL","CLASSIFICATION_TYPE":"U","EPHEMERIS_TYPE":"0"},{"RCS_SIZE":"LARGE","INCLINATION":"53.2172","TLE_LINE2":"2 52568  53.2172 315.5915 0001686  45.1600 205.4211 15.23869379  1306","FILE":"3519265","ARG_OF_PERICENTER":"45.1600","REV_AT_EPOCH":"130","CENTER_NAME":"EARTH","DECAY_DATE":null,"LAUNCH_DATE":"2022-05-13","MEAN_MOTION":"15.23869379","MEAN_MOTION_DOT":"-0.01067007","OBJECT_TYPE":"PAYLOAD","OBJECT_NAME":"STARLINK-3930","MEAN_MOTION_DDOT":"0.0000000000000","SEMIMAJOR_AXIS":"6872.320","REF_FRAME":"TEME","RA_OF_ASC_NODE":"315.5915","GP_ID":"208607604","ECCENTRICITY":"0.00016860","ELEMENT_SET_NO":"999","NORAD_CAT_ID":"52568","TIME_SYSTEM":"UTC","TLE_LINE1":"1 52568U 22051AM  22202.91667824 -.01067007  00000-0 -47671-1 0  9996","MEAN_ELEMENT_THEORY":"SGP4","PERIOD":"94.496","APOAPSIS":"495.343","PERIAPSIS":"493.026","MEAN_ANOMALY":"205.4211","SITE":"AFWTR","EPOCH":"2022-07-21T22:00:00.999936","BSTAR":"-0.04767100000000","EPHEMERIS_TYPE":"0","COUNTRY_CODE":"US","OBJECT_ID":"2022-051AM","CLASSIFICATION_TYPE":"U"},{"ARG_OF_PERICENTER":"48.7813","REV_AT_EPOCH":"130","INCLINATION":"53.2172","RCS_SIZE":"LARGE","FILE":"3519265","TLE_LINE2":"2 52569  53.2172 315.5813 0001664  48.7813 175.2820 15.23290004  1308","SEMIMAJOR_AXIS":"6874.062","RA_OF_ASC_NODE":"315.5813","REF_FRAME":"TEME","MEAN_MOTION":"15.23290004","LAUNCH_DATE":"2022-05-13","MEAN_MOTION_DOT":"-0.01065772","CENTER_NAME":"EARTH","DECAY_DATE":null,"OBJECT_NAME":"STARLINK-3927","MEAN_MOTION_DDOT":"0.0000000000000","OBJECT_TYPE":"PAYLOAD","TLE_LINE1":"1 52569U 22051AN  22202.91667824 -.01065772  00000-0 -48444-1 0  9993","MEAN_ELEMENT_THEORY":"SGP4","NORAD_CAT_ID":"52569","ELEMENT_SET_NO":"999","ECCENTRICITY":"0.00016640","TIME_SYSTEM":"UTC","GP_ID":"208607024","COUNTRY_CODE":"US","OBJECT_ID":"2022-051AN","CLASSIFICATION_TYPE":"U","EPHEMERIS_TYPE":"0","PERIAPSIS":"494.783","MEAN_ANOMALY":"175.2820","PERIOD":"94.532","APOAPSIS":"497.071","BSTAR":"-0.04844400000000","EPOCH":"2022-07-21T22:00:00.999936","SITE":"AFWTR"},{"CENTER_NAME":"EARTH","DECAY_DATE":null,"LAUNCH_DATE":"2022-05-13","MEAN_MOTION":"15.24159026","MEAN_MOTION_DOT":"-0.01067553","OBJECT_TYPE":"PAYLOAD","OBJECT_NAME":"STARLINK-3924","MEAN_MOTION_DDOT":"0.0000000000000","SEMIMAJOR_AXIS":"6871.449","REF_FRAME":"TEME","RA_OF_ASC_NODE":"315.5965","RCS_SIZE":"LARGE","INCLINATION":"53.2172","TLE_LINE2":"2 52570  53.2172 315.5965 0001663  44.7266 218.9149 15.24159026  1303","FILE":"3519265","ARG_OF_PERICENTER":"44.7266","REV_AT_EPOCH":"130","PERIOD":"94.478","APOAPSIS":"494.457","PERIAPSIS":"492.171","MEAN_ANOMALY":"218.9149","SITE":"AFWTR","EPOCH":"2022-07-21T22:00:00.999936","BSTAR":"-0.04728500000000","EPHEMERIS_TYPE":"0","COUNTRY_CODE":"US","CLASSIFICATION_TYPE":"U","OBJECT_ID":"2022-051AP","GP_ID":"208607720","ELEMENT_SET_NO":"999","TIME_SYSTEM":"UTC","NORAD_CAT_ID":"52570","ECCENTRICITY":"0.00016630","TLE_LINE1":"1 52570U 22051AP  22202.91667824 -.01067553  00000-0 -47285-1 0  9996","MEAN_ELEMENT_THEORY":"SGP4"},{"OBJECT_TYPE":"PAYLOAD","MEAN_MOTION_DDOT":"0.0000000000000","OBJECT_NAME":"STARLINK-3901","DECAY_DATE":null,"CENTER_NAME":"EARTH","MEAN_MOTION_DOT":"-0.01068645","MEAN_MOTION":"15.27385660","LAUNCH_DATE":"2022-05-13","REF_FRAME":"TEME","RA_OF_ASC_NODE":"315.3350","SEMIMAJOR_AXIS":"6861.768","TLE_LINE2":"2 52574  53.2172 315.3350 0001947  27.8207 345.4993 15.27385660  1306","FILE":"3519265","RCS_SIZE":"LARGE","INCLINATION":"53.2172","REV_AT_EPOCH":"130","ARG_OF_PERICENTER":"27.8207","SITE":"AFWTR","EPOCH":"2022-07-21T22:00:00.999936","BSTAR":"-0.04292200000000","APOAPSIS":"484.969","PERIOD":"94.279","MEAN_ANOMALY":"345.4993","PERIAPSIS":"482.297","EPHEMERIS_TYPE":"0","CLASSIFICATION_TYPE":"U","OBJECT_ID":"2022-051AQ","COUNTRY_CODE":"US","GP_ID":"208607817","ECCENTRICITY":"0.00019470","ELEMENT_SET_NO":"999","NORAD_CAT_ID":"52574","TIME_SYSTEM":"UTC","MEAN_ELEMENT_THEORY":"SGP4","TLE_LINE1":"1 52574U 22051AQ  22202.91667824 -.01068645  00000-0 -42922-1 0  9996"},{"FILE":"3519265","TLE_LINE2":"2 52575  53.2172 315.6013 0001753  39.3771 237.1925 15.24448671  1306","INCLINATION":"53.2172","RCS_SIZE":"LARGE","REV_AT_EPOCH":"130","ARG_OF_PERICENTER":"39.3771","MEAN_MOTION_DDOT":"0.0000000000000","OBJECT_NAME":"STARLINK-3920","OBJECT_TYPE":"PAYLOAD","MEAN_MOTION_DOT":"-0.01068072","LAUNCH_DATE":"2022-05-13","MEAN_MOTION":"15.24448671","DECAY_DATE":null,"CENTER_NAME":"EARTH","RA_OF_ASC_NODE":"315.6013","REF_FRAME":"TEME","SEMIMAJOR_AXIS":"6870.578","ELEMENT_SET_NO":"999","TIME_SYSTEM":"UTC","NORAD_CAT_ID":"52575","ECCENTRICITY":"0.00017530","GP_ID":"208607500","MEAN_ELEMENT_THEORY":"SGP4","TLE_LINE1":"1 52575U 22051AR  22202.91667824 -.01068072  00000-0 -46899-1 0  9998","EPOCH":"2022-07-21T22:00:00.999936","BSTAR":"-0.04689900000000","SITE":"AFWTR","MEAN_ANOMALY":"237.1925","PERIAPSIS":"491.239","APOAPSIS":"493.648","PERIOD":"94.460","CLASSIFICATION_TYPE":"U","OBJECT_ID":"2022-051AR","COUNTRY_CODE":"US","EPHEMERIS_TYPE":"0"},{"MEAN_ELEMENT_THEORY":"SGP4","TLE_LINE1":"1 52576U 22051AS  22202.91667824 -.01068463  00000-0 -47743-1 0  9992","ELEMENT_SET_NO":"999","NORAD_CAT_ID":"52576","TIME_SYSTEM":"UTC","ECCENTRICITY":"0.00016860","GP_ID":"208582520","OBJECT_ID":"2022-051AS","CLASSIFICATION_TYPE":"U","COUNTRY_CODE":"US","EPHEMERIS_TYPE":"0","EPOCH":"2022-07-21T22:00:00.999936","BSTAR":"-0.04774300000000","SITE":"AFWTR","MEAN_ANOMALY":"287.9663","PERIAPSIS":"493.028","APOAPSIS":"495.346","PERIOD":"94.496","REV_AT_EPOCH":"1135","ARG_OF_PERICENTER":"37.4718","FILE":"3519258","TLE_LINE2":"2 52576  53.2172 315.5582 0001686  37.4718 287.9663 15.23868623 11352","INCLINATION":"53.2172","RCS_SIZE":"LARGE","RA_OF_ASC_NODE":"315.5582","REF_FRAME":"TEME","SEMIMAJOR_AXIS":"6872.322","MEAN_MOTION_DDOT":"0.0000000000000","OBJECT_NAME":"STARLINK-3932","OBJECT_TYPE":"PAYLOAD","MEAN_MOTION_DOT":"-0.01068463","MEAN_MOTION":"15.23868623","LAUNCH_DATE":"2022-05-13","DECAY_DATE":null,"CENTER_NAME":"EARTH"}];
